{
  "type": "FeatureCollection",
  "features": [
    {
      "type": "Feature",
      "properties": {
        "norad_id": 41581,
        "name": "INTELSAT 31 (IS-31)",
        "group": "intelsat",
        "lat": -0.014763233733261171,
        "lon": -142.54077133854915,
        "alt_km": 35778.85366793806,
        "timestamp": "2025-12-26T14:28:47.357114+00:00",
        "meta_object_name": "INTELSAT 31 (IS-31)",
        "meta_object_id": "2016-035A",
        "meta_epoch": "2025-12-23T19:31:44.703840",
        "meta_mean_motion": 1.00269658,
        "meta_eccentricity": 0.0001926,
        "meta_inclination": 0.0283,
        "meta_ra_of_asc_node": 262.055,
        "meta_arg_of_pericenter": 303.365,
        "meta_mean_anomaly": 85.0534,
        "meta_ephemeris_type": 0,
        "meta_classification_type": "U",
        "meta_norad_cat_id": 41581,
        "meta_element_set_no": 999,
        "meta_rev_at_epoch": 3492,
        "meta_bstar": 0,
        "meta_mean_motion_dot": -1.29e-06,
        "meta_mean_motion_ddot": 0,
        "tle_line1": "1 41581U 16035A   25357.81371185 -.00000129  00000+0  00000+0 0  9991",
        "tle_line2": "2 41581   0.0283 262.0550 0001926 303.3650  85.0534  1.00269658 34922"
      },
      "geometry": {
        "type": "Point",
        "coordinates": [
          -142.54077133854915,
          -0.014763233733261171
        ]
      }
    },
    {
      "type": "Feature",
      "properties": {
        "norad_id": 41747,
        "name": "INTELSAT 36 (IS-36)",
        "group": "intelsat",
        "lat": 0.004772221011028533,
        "lon": 21.037360596546343,
        "alt_km": 35783.436737281154,
        "timestamp": "2025-12-26T14:28:47.357126+00:00",
        "meta_object_name": "INTELSAT 36 (IS-36)",
        "meta_object_id": "2016-053A",
        "meta_epoch": "2025-12-24T23:41:40.191072",
        "meta_mean_motion": 1.00271078,
        "meta_eccentricity": 0.00011962,
        "meta_inclination": 0.0114,
        "meta_ra_of_asc_node": 13.9545,
        "meta_arg_of_pericenter": 310.844,
        "meta_mean_anomaly": 192.8649,
        "meta_ephemeris_type": 0,
        "meta_classification_type": "U",
        "meta_norad_cat_id": 41747,
        "meta_element_set_no": 999,
        "meta_rev_at_epoch": 3420,
        "meta_bstar": 0,
        "meta_mean_motion_dot": -3e-08,
        "meta_mean_motion_ddot": 0,
        "tle_line1": "1 41747U 16053A   25358.98727073 -.00000003  00000+0  00000+0 0  9996",
        "tle_line2": "2 41747   0.0114  13.9545 0001196 310.8440 192.8649  1.00271078 34209"
      },
      "geometry": {
        "type": "Point",
        "coordinates": [
          21.037360596546343,
          0.004772221011028533
        ]
      }
    },
    {
      "type": "Feature",
      "properties": {
        "norad_id": 41945,
        "name": "INTELSAT 32E (IS-32E)",
        "group": "intelsat",
        "lat": -0.022614860659220172,
        "lon": -90.65876050715204,
        "alt_km": 35787.90913595177,
        "timestamp": "2025-12-26T14:28:47.357138+00:00",
        "meta_object_name": "INTELSAT 32E (IS-32E)",
        "meta_object_id": "2017-007B",
        "meta_epoch": "2025-12-25T09:26:14.207136",
        "meta_mean_motion": 1.00269163,
        "meta_eccentricity": 5.79e-05,
        "meta_inclination": 0.0256,
        "meta_ra_of_asc_node": 72.3331,
        "meta_arg_of_pericenter": 310.1957,
        "meta_mean_anomaly": 170.0068,
        "meta_ephemeris_type": 0,
        "meta_classification_type": "U",
        "meta_norad_cat_id": 41945,
        "meta_element_set_no": 999,
        "meta_rev_at_epoch": 3248,
        "meta_bstar": 0,
        "meta_mean_motion_dot": -2.48e-06,
        "meta_mean_motion_ddot": 0,
        "tle_line1": "1 41945U 17007B   25359.39321999 -.00000248  00000+0  00000+0 0  9990",
        "tle_line2": "2 41945   0.0256  72.3331 0000579 310.1957 170.0068  1.00269163 32481"
      },
      "geometry": {
        "type": "Point",
        "coordinates": [
          -90.65876050715204,
          -0.022614860659220172
        ]
      }
    },
    {
      "type": "Feature",
      "properties": {
        "norad_id": 42818,
        "name": "INTELSAT 35E (IS-35E)",
        "group": "intelsat",
        "lat": -0.03773611256710421,
        "lon": -81.99269380014486,
        "alt_km": 35778.54108339909,
        "timestamp": "2025-12-26T14:28:47.357150+00:00",
        "meta_object_name": "INTELSAT 35E (IS-35E)",
        "meta_object_id": "2017-041A",
        "meta_epoch": "2025-12-24T19:47:02.663232",
        "meta_mean_motion": 1.00269135,
        "meta_eccentricity": 0.0001994,
        "meta_inclination": 0.0182,
        "meta_ra_of_asc_node": 26.5073,
        "meta_arg_of_pericenter": 252.5399,
        "meta_mean_anomaly": 76.7961,
        "meta_ephemeris_type": 0,
        "meta_classification_type": "U",
        "meta_norad_cat_id": 42818,
        "meta_element_set_no": 999,
        "meta_rev_at_epoch": 3106,
        "meta_bstar": 0,
        "meta_mean_motion_dot": -2.17e-06,
        "meta_mean_motion_ddot": 0,
        "tle_line1": "1 42818U 17041A   25358.82433638 -.00000217  00000+0  00000+0 0  9995",
        "tle_line2": "2 42818   0.0182  26.5073 0001994 252.5399  76.7961  1.00269135 31060"
      },
      "geometry": {
        "type": "Point",
        "coordinates": [
          -81.99269380014486,
          -0.03773611256710421
        ]
      }
    },
    {
      "type": "Feature",
      "properties": {
        "norad_id": 42950,
        "name": "INTELSAT 37E (IS-37E)",
        "group": "intelsat",
        "lat": -0.037053483228936465,
        "lon": -65.43435455760974,
        "alt_km": 35774.946937182525,
        "timestamp": "2025-12-26T14:28:47.357162+00:00",
        "meta_object_name": "INTELSAT 37E (IS-37E)",
        "meta_object_id": "2017-059A",
        "meta_epoch": "2025-12-26T04:51:38.643840",
        "meta_mean_motion": 1.00271512,
        "meta_eccentricity": 0.00031098,
        "meta_inclination": 0.0184,
        "meta_ra_of_asc_node": 28.0449,
        "meta_arg_of_pericenter": 235.0112,
        "meta_mean_anomaly": 246.8171,
        "meta_ephemeris_type": 0,
        "meta_classification_type": "U",
        "meta_norad_cat_id": 42950,
        "meta_element_set_no": 999,
        "meta_rev_at_epoch": 3033,
        "meta_bstar": 0,
        "meta_mean_motion_dot": -1.19e-06,
        "meta_mean_motion_ddot": 0,
        "tle_line1": "1 42950U 17059A   25360.20253060 -.00000119  00000+0  00000+0 0  9996",
        "tle_line2": "2 42950   0.0184  28.0449 0003109 235.0112 246.8171  1.00271512 30336"
      },
      "geometry": {
        "type": "Point",
        "coordinates": [
          -65.43435455760974,
          -0.037053483228936465
        ]
      }
    },
    {
      "type": "Feature",
      "properties": {
        "norad_id": 43632,
        "name": "AZERSPACE 2 (IS-38)",
        "group": "intelsat",
        "lat": -0.010929270181989945,
        "lon": -2.3466968904626673,
        "alt_km": 35785.05688897619,
        "timestamp": "2025-12-26T14:28:47.357174+00:00",
        "meta_object_name": "AZERSPACE 2 (IS-38)",
        "meta_object_id": "2018-074A",
        "meta_epoch": "2025-12-25T14:59:23.620416",
        "meta_mean_motion": 1.00271088,
        "meta_eccentricity": 0.0001362,
        "meta_inclination": 0.0173,
        "meta_ra_of_asc_node": 17.3718,
        "meta_arg_of_pericenter": 261.2913,
        "meta_mean_anomaly": 85.6698,
        "meta_ephemeris_type": 0,
        "meta_classification_type": "U",
        "meta_norad_cat_id": 43632,
        "meta_element_set_no": 999,
        "meta_rev_at_epoch": 2670,
        "meta_bstar": 0,
        "meta_mean_motion_dot": 1.58e-06,
        "meta_mean_motion_ddot": 0,
        "tle_line1": "1 43632U 18074A   25359.62457894  .00000158  00000+0  00000+0 0  9999",
        "tle_line2": "2 43632   0.0173  17.3718 0001362 261.2913  85.6698  1.00271088 26708"
      },
      "geometry": {
        "type": "Point",
        "coordinates": [
          -2.3466968904626673,
          -0.010929270181989945
        ]
      }
    },
    {
      "type": "Feature",
      "properties": {
        "norad_id": 43633,
        "name": "HORIZONS-3E",
        "group": "intelsat",
        "lat": -0.004932361988979942,
        "lon": 121.53685437414279,
        "alt_km": 35789.24563026648,
        "timestamp": "2025-12-26T14:28:47.357185+00:00",
        "meta_object_name": "HORIZONS-3E",
        "meta_object_id": "2018-074B",
        "meta_epoch": "2025-12-25T20:43:05.708064",
        "meta_mean_motion": 1.00272244,
        "meta_eccentricity": 7.842e-05,
        "meta_inclination": 0.0134,
        "meta_ra_of_asc_node": 214.3727,
        "meta_arg_of_pericenter": 88.1399,
        "meta_mean_anomaly": 271.8768,
        "meta_ephemeris_type": 0,
        "meta_classification_type": "U",
        "meta_norad_cat_id": 43633,
        "meta_element_set_no": 999,
        "meta_rev_at_epoch": 2660,
        "meta_bstar": 0,
        "meta_mean_motion_dot": 0,
        "meta_mean_motion_ddot": 0,
        "tle_line1": "1 43633U 18074B   25359.86326051  .00000000  00000+0  00000+0 0  9992",
        "tle_line2": "2 43633   0.0134 214.3727 0000784  88.1399 271.8768  1.00272244 26607"
      },
      "geometry": {
        "type": "Point",
        "coordinates": [
          121.53685437414279,
          -0.004932361988979942
        ]
      }
    }
  ]
}